0 FENGYUN 1C DEB
1 37895U 99025EMU 13288.30811157  .00001314  00000-0  17168-2 0   787
2 37895 099.1955 087.0796 0341620 154.1347 307.7086 13.41597715188900
0 FENGYUN 1C DEB
1 37895U 99025EMU 13294.25365898  .00002129  00000-0  27431-2 0   794
2 37895 099.2149 092.4875 0342769 139.8119 223.2639 13.41632074189709
